#cP2013  4  5  0  0  0.00000000      96 ORBIT IGb08 HLM  IGS
## 1734 432000.00000000   900.00000000 56387 0.0000000000000
+   32   G01G02G03G04G05G06G07G08G09G10G11G12G13G14G15G16G17
+        G18G19G20G21G22G23G24G25G26G27G28G29G30G31G32  0  0
+          0  0  0  0  0  0  0  0  0  0  0  0  0  0  0  0  0
+          0  0  0  0  0  0  0  0  0  0  0  0  0  0  0  0  0
+          0  0  0  0  0  0  0  0  0  0  0  0  0  0  0  0  0
++         2  2  2  2  2  2  2  2  2  2  2  2  2  2  2  2  2
++         2  2  2  2  2  2  2  2  2  0  2  2  2  2  2  0  0
++         0  0  0  0  0  0  0  0  0  0  0  0  0  0  0  0  0
++         0  0  0  0  0  0  0  0  0  0  0  0  0  0  0  0  0
++         0  0  0  0  0  0  0  0  0  0  0  0  0  0  0  0  0
%c G  cc GPS ccc cccc cccc cccc cccc ccccc ccccc ccccc ccccc
%c cc cc ccc ccc cccc cccc cccc cccc ccccc ccccc ccccc ccccc
%f  1.2500000  1.025000000  0.00000000000  0.000000000000000
%f  0.0000000  0.000000000  0.00000000000  0.000000000000000
%i    0    0    0    0      0      0      0      0         0
%i    0    0    0    0      0      0      0      0         0
/* FINAL ORBIT COMBINATION FROM WEIGHTED AVERAGE OF:        
/* cod emr esa gfz grg jpl mit ngs sio                      
/* REFERENCED TO IGS TIME (IGST) AND TO WEIGHTED MEAN POLE: 
/* PCV:IGS08_1734 OL/AL:FES2004  NONE     Y  ORB:CMB CLK:CMB
*  2013  4  5  7 30  0.00000000
PG01  22665.188098  13564.669128   3150.556557     13.402618  6  7  5 110       
PG02  -7895.931611 -19874.186435  16263.007436    425.737844  2  9  4 112       
PG03   3730.443512  16209.948471 -21183.045524    190.019522  6  6  5 113       
PG04   5465.601154 -14963.553096  20942.859391    181.502333  4  6  6 111       
PG05  -3139.522782 -25147.986416  -7730.905882   -390.534125  7  8  5 114       
PG06  -3408.327209  17730.692141 -19271.936385    286.462080  5  7  4 118       
PG07  21064.225018   2066.281615 -16184.723839    199.174408  4  7  6 127       
PG08  14596.714331  -5503.777938 -21493.814007      5.468161  6  7  5 122       
PG09  -5009.191266 -18757.273474 -18633.490987    231.851162  8  5  4 127       
PG10   8703.268798 -23373.455643   8209.785509    -75.683249  5  5  4  97       
PG11  22133.764744  13475.743037  -6874.298323   -369.302825  8  8  2 122       
PG12 -11674.335284 -13156.420776  19938.843841    126.679134  3  7  2 144       
PG13  25294.041202  -3257.659310   7497.524340    131.499066  3  3  4  99       
PG14 -19463.897754  14763.139017  10439.927261    221.080639  5  5  5 123       
PG15 -15335.818366  -8708.011411 -19959.661394   -114.107636  6 10  6 132       
PG16   1091.300357  25353.616085  -7225.526952   -252.600438  5 10  3  99       
PG17  18493.007871 -15630.945799  10850.091736     33.091767  5  5  4 140       
PG18 -14938.999770  11213.666692 -18352.925450    247.347765  6  5  6 117       
PG19  11585.879688  11542.590988 -21087.504275   -362.254091  7  9  2 124       
PG20  14494.689282   9543.290535  19949.154934     91.464038  6  6  5 122       
PG21 -19612.470370   1913.725587 -17490.041292   -290.137175  2  4  6 125       
PG22 -10737.323045  21327.505073 -11293.263610    163.346876  6  6  5 152       
PG23  21713.975557   2393.038191  15436.108575     98.194191  1  6  5 106       
PG24 -21554.883120 -15552.024247   -408.062243     -3.939211     5  7 133       
PG25 -14965.795040   -245.627764  21894.224340     84.362683  5  5  4 134       
PG26  -1614.427700 -15276.209496 -22278.870914    -39.316439  6  4  1 124       
PG27  -7899.986798  23963.190214   7823.386479 999999.999999
PG28  12311.496690 -18334.327482 -14038.608007    247.175702  5  5  6 112       
PG29 -25023.495804   4009.869793   7928.317846    423.478715  5  8  4 133       
PG30  -2466.218820  26154.005541   3638.606668      0.725677  5  3  7  83       
PG31  -2889.317669  15715.639148  21334.340198    309.386463  6  7  5 139       
PG32   9030.929062  18527.199784  17168.961255   -548.253195  5  6  2 115       
*  2013  4  5  7 45  0.00000000
PG01  22691.866423  13883.138555    309.038679     13.405724  7  7  4 111       
PG02  -6199.144729 -18978.137321  17953.282638    425.739747  2  9  5 115       
PG03   1786.880770  17426.641754 -20418.373093    190.024276  6  6  5 112       
PG04   7557.292558 -13627.607295  21224.486230    181.511914  4  5  6 117       
PG05  -2808.325756 -25858.570388  -5017.457970   -390.535383  7  8  5 121       
PG06  -5368.512418  18654.667582 -17878.548141    286.447978  5  7  4 117       
PG07  22401.068359   3167.382928 -14107.495533    199.178420  5  7  6 126       
PG08  16422.528670  -3935.734123 -20555.143290      5.467195  6  7  4 118       
PG09  -3204.312699 -17662.351660 -20093.107307    231.854663  8  5  4 127       
PG10   8915.024152 -22214.737192  10758.536606    -75.684916  5  5  5  93       
PG11  21174.949019  13591.540126  -9349.875636   -369.306288  9  7  2 126       
PG12 -11380.074472 -15332.617820  18523.804768    126.681113  4  8  2 144       
PG13  24397.633989  -2736.675756  10145.512295    131.495777  3  4  4 100       
PG14 -20486.581259  14961.487044   7809.873825    221.080517  4  5  5 126       
PG15 -13316.085921  -9870.529724 -20827.205349   -114.109232  7 10  6 135       
PG16    809.866174  25994.400125  -4406.956121   -252.600430  6 10  3  88       
PG17  19566.830787 -15855.154839   8263.621863     33.088220  6  4  4 136       
PG18 -14960.020245   8941.042156 -19552.177045    247.349372  6  5  6 119       
PG19   9336.912085  12441.380562 -21649.323405   -362.256923  7  9  1 125       
PG20  14327.015013  11804.001590  18846.290467     91.466020  6  7  4 121       
PG21 -21159.765516    646.415679 -15798.145389   -290.138985  2  5  6 125       
PG22 -10935.562995  19849.270206 -13549.101851    163.347981  6  5  5 152       
PG23  20111.027776   3328.231668  17293.541971     98.190991  2  7  4 114       
PG24 -21240.420199 -15651.736563  -3248.310942     -3.940036  1  6  7 128       
PG25 -14817.833528  -2749.042154  21832.244004     84.365964  5  5  5 136       
PG26    624.732824 -16084.082885 -21706.955223    -39.302723  6  3  2 127       
PG27  -8025.498963  22882.803616  10458.458489 999999.999999
PG28  12255.724821 -16503.791645 -16133.983432    247.178666  5  3  6 108       
PG29 -24149.355149   3388.043209  10526.285569    423.481819  5  7  4 131       
PG30  -2731.779807  25547.676096   6420.890545      0.747875  5  4  8  82       
PG31  -4912.343002  14353.456129  21945.397447    309.388116  7  7  5 136       
PG32   8599.561785  20301.967841  15311.373789   -548.255586  5  6  2 113       
*  2013  4  5  8  0  0.00000000
PG01  22458.070109  14036.871432  -2537.774977     13.408803  7  7  4  99       
PG02  -4307.932071 -18083.021609  19344.469853    425.741257  2  8  4 121       
PG03    -16.532306  18675.642679 -19315.601443    190.028221  6  6  5 111       
PG04   9717.118754 -12388.748571  21131.302718    181.521738  3  5  6 114       
PG05  -2514.332453 -26272.339927  -2216.971736   -390.536717  7  8  5 130       
PG06  -7136.190760  19576.270426 -16171.554404    286.433775  5  7  4 114       
PG07  23583.905244   4062.567687 -11790.233717    199.182271  5  7  6 121       
PG08  18231.187162  -2555.973490 -19264.448871      5.466952  6  7  4 126       
PG09  -1218.588389 -16601.022940 -21221.496786    231.858223  8  5  5 128       
PG10   9175.954439 -20785.869097  13115.350730    -75.686359  5  4  5  97       
PG11  19967.214656  13681.309532 -11669.569790   -369.309412  9  7  3 120       
PG12 -11214.745281 -17342.104326  16791.537334    126.682874  4  8  3 138       
PG13  23265.546281  -2047.021444  12618.954425    131.492502  2  6  4 111       
PG14 -21222.757392  15081.491475   5045.166547    221.080711  4  6  6 117       
PG15 -11287.717301 -11172.609848 -21338.694740   -114.110286  7 10  6 132       
PG16    581.401732  26323.232829  -1510.959712   -252.600404  6  9  3  78       
PG17  20361.584902 -15995.477737   5534.066571     33.084589  5  4  4 139       
PG18 -15082.811805   6555.714512 -20400.650272    247.350859  7  5  6 118       
PG19   7096.175019  13476.772001 -21842.707374   -362.259619  7  9  1 124       
PG20  14259.131716  13925.152207  17415.182352     91.467351  6  7  4 121       
PG21 -22581.818779   -434.338869 -13829.828419   -290.141001  2  6  6 118       
PG22 -11198.638625  18138.632257 -15567.598313    163.349357  6  5  5 153       
PG23  18389.263270   4439.994571  18859.051416     98.187615  3  7  4 117       
PG24 -20656.003221 -15608.847786  -6032.797254     -3.940774  2  6  6 123       
PG25 -14804.855418  -5227.341877  21393.272037     84.369252  4  5  6 136       
PG26   2744.046778 -16984.487062 -20780.382087    -39.289702  6  3  2 129       
PG27  -8205.437460  21519.813228  12910.418475 999999.999999
PG28  12286.654431 -14444.121598 -17937.858466    247.181953  4  3  5 118       
PG29 -23056.114565   2593.104964  12943.106414    423.484737  5  8  3 128       
PG30  -3060.678272  24646.256845   9091.668651      0.769877  5  4  8  84       
PG31  -7046.095795  13082.207470  22183.850607    309.389494  7  7  4 138       
PG32   8281.631957  21874.452393  13198.504877   -548.257680  5  6  3 112       
EOF
